FENGYUN 1C DEB          
1 31808U 99025CGW 17345.90325371  .00001681  00000-0  10220-2 0  9998
2 31808  99.2218  26.6633 0087811  97.2899 263.8259 14.05749868162330
